[{"OBJECT_NAME":"STARLINK-36093","OBJECT_ID":"2025-293N","EPOCH":"2026-03-09T18:58:54.198912","MEAN_MOTION":14.98318168,"ECCENTRICITY":0.0002859,"INCLINATION":70.0017,"RA_OF_ASC_NODE":94.1738,"ARG_OF_PERICENTER":269.9344,"MEAN_ANOMALY":90.1487,"EPHEMERIS_TYPE":0,"CLASSIFICATION_TYPE":"U","NORAD_CAT_ID":67015,"ELEMENT_SET_NO":999,"REV_AT_EPOCH":1490,"BSTAR":-0.00042485433,"MEAN_MOTION_DOT":-5.157e-5,"MEAN_MOTION_DDOT":0},{"OBJECT_NAME":"METHANESAT","OBJECT_ID":"2024-043D","EPOCH":"2026-03-09T22:12:33.121440","MEAN_MOTION":14.97588653,"ECCENTRICITY":0.00100526,"INCLINATION":97.8288,"RA_OF_ASC_NODE":199.6058,"ARG_OF_PERICENTER":350.2517,"MEAN_ANOMALY":9.8508,"EPHEMERIS_TYPE":0,"CLASSIFICATION_TYPE":"U","NORAD_CAT_ID":59101,"ELEMENT_SET_NO":999,"REV_AT_EPOCH":10979,"BSTAR":0.00032562202,"MEAN_MOTION_DOT":3.748e-5,"MEAN_MOTION_DDOT":0}]
